{"fetched_at": "2026-03-12T06:15:39.390958+00:00", "count": 376, "satellites": [ {"name": "JASON-3", "tle1": "1 41240U 16002A   26070.91525992 -.00000030  00000+0  12793-3 0  9995", "tle2": "2 41240  66.0443 330.3429 0007747 277.1368  82.8770 12.87626169474723", "norad_id": 41240, "group": "resource", "highlight": false}, {"name": "SENTINEL-3A", "tle1": "1 41335U 16011A   26070.94635676  .00000114  00000+0  65016-4 0  9993", "tle2": "2 41335  98.6224 139.7000 0001252  96.9972 263.1351 14.26734955524199", "norad_id": 41335, "group": "resource", "highlight": true}, {"name": "ZIYUAN 3-02 (ZY 3-02)", "tle1": "1 41556U 16033A   26070.97610978  .00007023  00000+0  31383-3 0  9998", "tle2": "2 41556  97.3894 148.5904 0010982 289.8473  70.1579 15.21591149543206", "norad_id": 41556, "group": "resource", "highlight": false}, {"name": "CARTOSAT-2C", "tle1": "1 41599U 16040A   26070.97678574  .00004956  00000+0  23809-3 0  9995", "tle2": "2 41599  97.4604 132.2326 0010451 114.4260 245.8066 15.19249127538950", "norad_id": 41599, "group": "resource", "highlight": false}, {"name": "SKYSAT-C1", "tle1": "1 41601U 16040C   26070.59192661  .00011241  00000+0  33776-3 0  9994", "tle2": "2 41601  96.9703 107.6549 0003431  48.4456 311.7082 15.34557920542893", "norad_id": 41601, "group": "resource", "highlight": false}, {"name": "LAPAN-A3", "tle1": "1 41603U 16040E   26070.98397863  .00004291  00000+0  13932-3 0  9999", "tle2": "2 41603  97.1487  70.3804 0010757  15.1284 345.0278 15.32409034539923", "norad_id": 41603, "group": "resource", "highlight": false}, {"name": "GAOFEN-3", "tle1": "1 41727U 16049A   26070.95496330 -.00000020  00000+0  71710-5 0  9998", "tle2": "2 41727  98.4059  80.1947 0001678  89.7133 270.4249 14.42216656504633", "norad_id": 41727, "group": "resource", "highlight": true}, {"name": "SKYSAT-C4", "tle1": "1 41771U 16058B   26070.98641608  .00017296  00000+0  36254-3 0  9994", "tle2": "2 41771  96.9292  96.9880 0001095 126.1494 233.9858 15.45463606530445", "norad_id": 41771, "group": "resource", "highlight": false}, {"name": "SKYSAT-C5", "tle1": "1 41772U 16058C   26070.91254147  .00008942  00000+0  27115-3 0  9990", "tle2": "2 41772  97.0615 115.8819 0001690  86.5563 273.5874 15.34338871528838", "norad_id": 41772, "group": "resource", "highlight": false}, {"name": "SKYSAT-C2", "tle1": "1 41773U 16058D   26070.98291264  .00012830  00000+0  32570-3 0  9991", "tle2": "2 41773  97.0285  96.8425 0004871  63.3935 296.7811 15.39770240530086", "norad_id": 41773, "group": "resource", "highlight": false}, {"name": "SKYSAT-C3", "tle1": "1 41774U 16058E   26070.82004224  .00022199  00000+0  41954-3 0  9998", "tle2": "2 41774  96.9178 105.6016 0001722 110.6231 249.5206 15.48428312531027", "norad_id": 41774, "group": "resource", "highlight": false}, {"name": "ALSAT-1B", "tle1": "1 41785U 16059C   26070.98207875  .00000350  00000+0  63040-4 0  9991", "tle2": "2 41785  97.7809  83.9289 0009315 170.1143 190.0250 14.72190116506270", "norad_id": 41785, "group": "resource", "highlight": false}, {"name": "PATHFINDER 1", "tle1": "1 41787U 16059E   26070.98060069  .00000894  00000+0  16486-3 0  9999", "tle2": "2 41787  97.8179  74.6504 0029113 153.6203 206.6492 14.67522845505454", "norad_id": 41787, "group": "resource", "highlight": false}, {"name": "SCATSAT 1", "tle1": "1 41790U 16059H   26070.75076415  .00001666  00000+0  22615-3 0  9999", "tle2": "2 41790  98.1297 133.4847 0054535 200.7655 159.1341 14.79271670 87188", "norad_id": 41790, "group": "resource", "highlight": false}, {"name": "GOKTURK 1A", "tle1": "1 41875U 16073A   26070.97547940  .00000771  00000+0  16036-3 0  9995", "tle2": "2 41875  98.1354 327.1174 0001349  79.1433 280.9921 14.62753183494611", "norad_id": 41875, "group": "resource", "highlight": false}, {"name": "RESOURCESAT-2A", "tle1": "1 41877U 16074A   26070.94299098 -.00000074  00000+0 -13772-4 0  9996", "tle2": "2 41877  98.7595 145.2166 0002389  31.6151 328.5169 14.21601164480480", "norad_id": 41877, "group": "resource", "highlight": false}, {"name": "CARTOSAT-2D", "tle1": "1 41948U 17008A   26070.74678325  .00000721  00000+0  37394-4 0  9998", "tle2": "2 41948  97.4229 131.8128 0004518 210.9782 149.1187 15.19273671502787", "norad_id": 41948, "group": "resource", "highlight": false}, {"name": "SENTINEL-2B", "tle1": "1 42063U 17013A   26070.93475691 -.00000112  00000+0 -26235-4 0  9993", "tle2": "2 42063  98.5647 147.0958 0001138  94.8607 265.2706 14.30820169470730", "norad_id": 42063, "group": "resource", "highlight": true}, {"name": "CARTOSAT-2E", "tle1": "1 42767U 17036C   26070.89547175  .00000238  00000+0  14520-4 0  9992", "tle2": "2 42767  97.4392 132.2426 0002697 296.6324  63.4634 15.19206071483371", "norad_id": 42767, "group": "resource", "highlight": false}, {"name": "FORMOSAT-5", "tle1": "1 42920U 17049A   26070.94852027  .00000221  00000+0  67016-4 0  9998", "tle2": "2 42920  98.2308 148.4075 0011570  29.9751 330.2104 14.50822852452578", "norad_id": 42920, "group": "resource", "highlight": false}, {"name": "SENTINEL-5P", "tle1": "1 42969U 17064A   26070.78961705  .00000108  00000+0  72026-4 0  9995", "tle2": "2 42969  98.7881  13.6323 0001046  80.3761 279.7533 14.19549876435740", "norad_id": 42969, "group": "resource", "highlight": true}, {"name": "SKYSAT-C11", "tle1": "1 42987U 17068A   26070.97264526  .00028149  00000+0  45917-3 0  9990", "tle2": "2 42987  97.4203 216.0328 0000574  80.8687 279.2630 15.52567290468135", "norad_id": 42987, "group": "resource", "highlight": false}, {"name": "SKYSAT-C10", "tle1": "1 42988U 17068B   26070.88625696  .00011408  00000+0  36315-3 0  9992", "tle2": "2 42988  97.4338 207.0079 0001000  92.9156 267.2201 15.32739502467447", "norad_id": 42988, "group": "resource", "highlight": false}, {"name": "SKYSAT-C9", "tle1": "1 42989U 17068C   26070.92383769  .00015900  00000+0  41334-3 0  9998", "tle2": "2 42989  97.4260 207.1011 0009889 125.2534 234.9638 15.38970258467785", "norad_id": 42989, "group": "resource", "highlight": false}, {"name": "SKYSAT-C8", "tle1": "1 42990U 17068D   26070.93286136  .00012498  00000+0  37221-3 0  9990", "tle2": "2 42990  97.4354 206.5009 0001247  91.7403 268.3983 15.34837012467389", "norad_id": 42990, "group": "resource", "highlight": false}, {"name": "SKYSAT-C7", "tle1": "1 42991U 17068E   26070.92301954  .00013435  00000+0  40018-3 0  9996", "tle2": "2 42991  97.4365 207.4741 0007315  96.6896 263.5180 15.34789511467440", "norad_id": 42991, "group": "resource", "highlight": false}, {"name": "SKYSAT-C6", "tle1": "1 42992U 17068F   26070.92258947  .00011932  00000+0  38177-3 0  9993", "tle2": "2 42992  97.4401 207.7524 0003675 122.7375 237.4221 15.32558951467415", "norad_id": 42992, "group": "resource", "highlight": false}, {"name": "CARTOSAT-2F", "tle1": "1 43111U 18004A   26070.92751454  .00004002  00000+0  19288-3 0  9991", "tle2": "2 43111  97.4156 132.0467 0001074 194.3780 165.7424 15.19286718452560", "norad_id": 43111, "group": "resource", "highlight": false}, {"name": "GAOFEN-1 02", "tle1": "1 43259U 18031A   26070.57297285  .00000059  00000+0  15932-4 0  9993", "tle2": "2 43259  98.0646 133.3229 0002252 341.5477  18.5651 14.76443468428291", "norad_id": 43259, "group": "resource", "highlight": true}, {"name": "GAOFEN-1 03", "tle1": "1 43260U 18031B   26070.95767020  .00000994  00000+0  15041-3 0  9994", "tle2": "2 43260  98.0630 133.5754 0003363  44.5604 315.5876 14.76423338428346", "norad_id": 43260, "group": "resource", "highlight": true}, {"name": "GAOFEN-1 04", "tle1": "1 43262U 18031D   26070.93345554  .00001158  00000+0  17396-3 0  9996", "tle2": "2 43262  98.0640 133.7298 0001868  77.6230 282.5188 14.76442338428333", "norad_id": 43262, "group": "resource", "highlight": true}, {"name": "SENTINEL-3B", "tle1": "1 43437U 18039A   26070.77923801  .00000148  00000+0  79002-4 0  9998", "tle2": "2 43437  98.6223 139.6827 0001037 127.5174 232.6101 14.26737317410233", "norad_id": 43437, "group": "resource", "highlight": true}, {"name": "GAOFEN-5 01", "tle1": "1 43461U 18043A   26070.91901842  .00000501  00000+0  11337-3 0  9996", "tle2": "2 43461  98.4469  40.5221 0002537  47.5038 312.6376 14.60525952417490", "norad_id": 43461, "group": "resource", "highlight": true}, {"name": "GAOFEN-6", "tle1": "1 43484U 18048A   26070.96455663  .00000867  00000+0  13101-3 0  9992", "tle2": "2 43484  97.7865 137.1647 0013314 127.8149 232.4268 14.76601432419049", "norad_id": 43484, "group": "resource", "highlight": true}, {"name": "GAOFEN-11 01", "tle1": "1 43585U 18063A   26070.99556993  .00011556  00000+0  19125-3 0  9991", "tle2": "2 43585  97.1406 138.3027 0003395 356.3142   3.8086 15.52341075425258", "norad_id": 43585, "group": "resource", "highlight": true}, {"name": "ICESAT-2", "tle1": "1 43613U 18070A   26070.85312062  .00003306  00000+0  11972-3 0  9999", "tle2": "2 43613  91.9994 264.7507 0004000 121.2884 238.8758 15.28342621417592", "norad_id": 43613, "group": "resource", "highlight": false}, {"name": "HYSIS", "tle1": "1 43719U 18096A   26070.96933197  .00001182  00000+0  16835-3 0  9997", "tle2": "2 43719  97.9934 138.4377 0001801  95.3366 264.8051 14.78665220393059", "norad_id": 43719, "group": "resource", "highlight": false}, {"name": "KAZSTSAT", "tle1": "1 43783U 18099AB  26070.88761441  .00001269  00000+0  10758-3 0  9997", "tle2": "2 43783  97.4392 107.1807 0006212   3.9642 356.1630 14.99626887396721", "norad_id": 43783, "group": "resource", "highlight": false}, {"name": "SAUDISAT 5A", "tle1": "1 43831U 18102A   26070.95207756  .00006185  00000+0  23594-3 0  9992", "tle2": "2 43831  97.3185 134.4261 0011440 115.6524 244.5898 15.26969726400837", "norad_id": 43831, "group": "resource", "highlight": false}, {"name": "SAUDISAT 5B", "tle1": "1 43833U 18102C   26070.98892395  .00006459  00000+0  24393-3 0  9998", "tle2": "2 43833  97.3281 137.3583 0012134 117.7848 242.4623 15.27277713400953", "norad_id": 43833, "group": "resource", "highlight": false}]}